NUSAT-49 (KLARA DAN VO*)
1 60500U 24149AJ  26068.79810190  .00012912  00000+0  43568-3 0  9991
2 60500  97.3807 150.7380 0001132 286.7761  73.3356 15.30828857 86935
STARLINK-32296          
1 61524U 24183R   26068.47391007 -.00000565  00000+0 -69443-5 0  9997
2 61524  53.1599 143.1375 0001074  85.5353 274.5770 15.30190017 79620
